OBJECT_NAME,OBJECT_ID,EPOCH,MEAN_MOTION,ECCENTRICITY,INCLINATION,RA_OF_ASC_NODE,ARG_OF_PERICENTER,MEAN_ANOMALY,EPHEMERIS_TYPE,CLASSIFICATION_TYPE,NORAD_CAT_ID,ELEMENT_SET_NO,REV_AT_EPOCH,BSTAR,MEAN_MOTION_DOT,MEAN_MOTION_DDOT
STARLINK-38078,2026-150F,2026-07-10T06:00:02.000160,15.80872047,.00012284,97.2844,29.3395,90.8573,162.3233,0,U,69744,999,250,-.52628404E-3,-.100059E-2,0
STARLINK-38047,2026-150G,2026-07-10T06:00:02.000160,15.80840222,.00018596,97.2840,29.3414,71.1506,186.5989,0,U,69745,999,250,-.28632268E-3,-.54709E-3,0
STARLINK-38046,2026-150H,2026-07-10T06:00:02.000160,15.80866966,.00014643,97.2844,29.3465,89.4343,179.2284,0,U,69746,999,250,-.5082005E-3,-.96644E-3,0
STARLINK-38067,2026-150J,2026-07-10T06:00:02.000160,15.80444620,.00018464,97.2843,29.3481,98.3321,176.0543,0,U,69747,999,250,-.12014971E-1,-.196745E-1,0
STARLINK-37988,2026-150K,2026-07-10T06:00:02.000160,15.81159685,.00009996,97.2842,29.3490,110.5725,166.7449,0,U,69748,999,250,-.57001783E-2,-.990638E-2,0
STARLINK-37987,2026-150L,2026-07-10T06:00:02.000160,15.80857024,.00014225,97.2843,29.3522,85.0255,197.3246,0,U,69749,999,250,-.42787074E-3,-.81493E-3,0
STARLINK-38037,2026-150M,2026-07-10T06:00:02.000160,15.80874409,.00011897,97.2841,29.3582,98.9289,195.7327,0,U,69750,999,250,-.55170721E-3,-.104839E-2,0
STARLINK-38049,2026-150N,2026-07-10T06:00:02.000160,15.80863189,.00012836,97.2844,29.3602,96.1881,204.2668,0,U,69751,999,250,-.48033914E-3,-.9139E-3,0
STARLINK-38029,2026-150P,2026-07-10T06:00:02.000160,15.80870196,.00011177,97.2848,29.3740,90.8558,242.2902,0,U,69752,999,250,-.51645148E-3,-.98203E-3,0
STARLINK-37965,2026-150Q,2026-07-10T06:00:02.000160,15.80869945,.00010976,97.2845,29.3741,93.1899,240.8941,0,U,69753,999,250,-.50360826E-3,-.9579E-3,0
STARLINK-38048,2026-150R,2026-07-10T06:00:02.000160,15.80869280,.00010142,97.2844,29.3749,82.0741,253.1840,0,U,69754,999,250,-.5167503E-3,-.98254E-3,0
STARLINK-38006,2026-150S,2026-07-10T06:00:02.000160,15.80870578,.00009797,97.2847,29.3808,110.8133,240.0494,0,U,69755,999,250,-.64042946E-3,-.121422E-2,0
STARLINK-38036,2026-150T,2026-07-10T06:00:02.000160,15.80857617,.00008587,97.2854,29.3847,97.3477,261.1963,0,U,69756,999,250,-.52646065E-3,-.100022E-2,0
STARLINK-38058,2026-150U,2026-07-10T06:00:02.000160,15.80859308,.00008708,97.2854,29.3851,90.0696,269.9137,0,U,69757,999,250,-.53804812E-3,-.102204E-2,0
STARLINK-38066,2026-150V,2026-07-10T06:00:02.000160,15.80860599,.00007963,97.2855,29.3855,94.4362,266.3995,0,U,69758,999,250,-.54966413E-3,-.104386E-2,0
STARLINK-38035,2026-150W,2026-07-10T06:00:02.000160,15.80850205,.00009039,97.2855,29.3859,94.9913,266.5501,0,U,69759,999,250,-.46238355E-3,-.87957E-3,0
STARLINK-38056,2026-150X,2026-07-10T06:00:02.000160,15.80877748,.00014364,97.2857,29.3952,93.6315,287.5812,0,U,69760,999,250,-.60177912E-3,-.114241E-2,0
STARLINK-38069,2026-150Y,2026-07-10T06:00:02.000160,15.80866753,.00015302,97.2865,29.4037,83.5750,317.3250,0,U,69761,999,250,-.61100037E-3,-.115911E-2,0
STARLINK-38019,2026-150Z,2026-07-10T06:00:02.000160,15.80787001,.00009547,97.2863,29.4040,82.9013,319.5177,0,U,69762,999,250,.22112584E-3,.42363E-3,0
KUIPER-00258,2026-151A,2026-07-10T06:00:02.000160,15.35489489,.00124537,51.8667,204.4018,153.9597,177.1532,0,U,69763,999,161,-.52214337E-3,-.18677E-3,0
KUIPER-00526,2026-151B,2026-07-10T06:00:02.000160,15.37263961,.00061772,51.8763,204.3006,124.2979,255.7762,0,U,69764,999,138,-.53154089E-3,-.20061E-3,0
KUIPER-00558,2026-151C,2026-07-10T06:00:02.000160,15.36755609,.00077699,51.8753,204.3284,135.1625,231.6049,0,U,69765,999,186,-.52004278E-3,-.1933E-3,0
KUIPER-00569,2026-151D,2026-07-10T06:00:02.000160,15.37416621,.00052219,51.8786,204.2867,122.4629,263.2071,0,U,69766,999,130,-.52202072E-3,-.19802E-3,0
KUIPER-00589,2026-151E,2026-07-10T06:00:02.000160,15.37359554,.00055067,51.8753,204.2959,127.7721,255.0416,0,U,69767,999,189,-.52029755E-3,-.19703E-3,0
KUIPER-00598,2026-151F,2026-07-10T06:00:02.000160,15.35548282,.00101939,51.8634,204.3912,151.3120,184.3716,0,U,69768,999,179,-.24374369E-3,-.8945E-4,0
KUIPER-00604,2026-151G,2026-07-10T06:00:02.000160,15.38179785,.00027651,51.8800,204.2410,92.7186,313.7737,0,U,69769,999,221,-.5127881E-3,-.19932E-3,0
KUIPER-00609,2026-151H,2026-07-10T06:00:02.000160,15.38577420,.00010004,51.8804,204.2151,39.5430,19.2394,0,U,69770,999,130,-.50468937E-3,-.19872E-3,0
KUIPER-00611,2026-151J,2026-07-10T06:00:02.000160,15.38390595,.00016585,51.8805,204.2239,90.5429,322.0577,0,U,69771,999,130,-.51118115E-3,-.20003E-3,0
KUIPER-00612,2026-151K,2026-07-10T06:00:02.000160,15.37880975,.00037696,51.8792,204.2606,100.7099,297.3072,0,U,69772,999,130,-.51044375E-3,-.19656E-3,0
KUIPER-00614,2026-151L,2026-07-10T06:00:02.000160,15.38095154,.00027798,51.8803,204.2444,108.6053,295.4289,0,U,69773,999,179,-.52288458E-3,-.2026E-3,0
