STARLINK-38078          
1 69744U 26150F   26191.25002315 -.00100059  00000+0 -52628-3 0  9993
2 69744  97.2844  29.3395 0001228  90.8573 162.3233 15.80872047  2501
STARLINK-38047          
1 69745U 26150G   26191.25002315 -.00054709  00000+0 -28632-3 0  9992
2 69745  97.2840  29.3414 0001859  71.1506 186.5989 15.80840222  2504
STARLINK-38046          
1 69746U 26150H   26191.25002315 -.00096644  00000+0 -50820-3 0  9991
2 69746  97.2844  29.3465 0001464  89.4343 179.2284 15.80866966  2508
STARLINK-38067          
1 69747U 26150J   26191.25002315 -.01967450  00000+0 -12015-1 0  9997
2 69747  97.2843  29.3481 0001846  98.3321 176.0543 15.80444620  2507
STARLINK-37988          
1 69748U 26150K   26191.25002315 -.00990638  00000+0 -57002-2 0  9997
2 69748  97.2842  29.3490 0000999 110.5725 166.7449 15.81159685  2506
STARLINK-37987          
1 69749U 26150L   26191.25002315 -.00081493  00000+0 -42787-3 0  9993
2 69749  97.2843  29.3522 0001422  85.0255 197.3246 15.80857024  2506
STARLINK-38037          
1 69750U 26150M   26191.25002315 -.00104839  00000+0 -55171-3 0  9996
2 69750  97.2841  29.3582 0001189  98.9289 195.7327 15.80874409  2500
STARLINK-38049          
1 69751U 26150N   26191.25002315 -.00091390  00000+0 -48034-3 0  9994
2 69751  97.2844  29.3602 0001283  96.1881 204.2668 15.80863189  2507
STARLINK-38029          
1 69752U 26150P   26191.25002315 -.00098203  00000+0 -51645-3 0  9997
2 69752  97.2848  29.3740 0001117  90.8558 242.2902 15.80870196  2502
STARLINK-37965          
1 69753U 26150Q   26191.25002315 -.00095790  00000+0 -50361-3 0  9990
2 69753  97.2845  29.3741 0001097  93.1899 240.8941 15.80869945  2509
STARLINK-38048          
1 69754U 26150R   26191.25002315 -.00098254  00000+0 -51675-3 0  9998
2 69754  97.2844  29.3749 0001014  82.0741 253.1840 15.80869280  2506
STARLINK-38006          
1 69755U 26150S   26191.25002315 -.00121422  00000+0 -64043-3 0  9996
2 69755  97.2847  29.3808 0000979 110.8133 240.0494 15.80870578  2502
STARLINK-38036          
1 69756U 26150T   26191.25002315 -.00100022  00000+0 -52646-3 0  9996
2 69756  97.2854  29.3847 0000858  97.3477 261.1963 15.80857617  2504
STARLINK-38058          
1 69757U 26150U   26191.25002315 -.00102204  00000+0 -53805-3 0  9999
2 69757  97.2854  29.3851 0000870  90.0696 269.9137 15.80859308  2505
STARLINK-38066          
1 69758U 26150V   26191.25002315 -.00104386  00000+0 -54966-3 0  9992
2 69758  97.2855  29.3855 0000796  94.4362 266.3995 15.80860599  2503
STARLINK-38035          
1 69759U 26150W   26191.25002315 -.00087957  00000+0 -46238-3 0  9990
2 69759  97.2855  29.3859 0000903  94.9913 266.5501 15.80850205  2503
STARLINK-38056          
1 69760U 26150X   26191.25002315 -.00114241  00000+0 -60178-3 0  9998
2 69760  97.2857  29.3952 0001436  93.6315 287.5812 15.80877748  2504
STARLINK-38069          
1 69761U 26150Y   26191.25002315 -.00115911  00000+0 -61100-3 0  9990
2 69761  97.2865  29.4037 0001530  83.5750 317.3250 15.80866753  2507
STARLINK-38019          
1 69762U 26150Z   26191.25002315  .00042363  00000+0  22113-3 0  9990
2 69762  97.2863  29.4040 0000954  82.9013 319.5177 15.80787001  2504
KUIPER-00258            
1 69763U 26151A   26191.25002315 -.00018677  00000+0 -52214-3 0  9990
2 69763  51.8667 204.4018 0012453 153.9597 177.1532 15.35489489  1619
KUIPER-00526            
1 69764U 26151B   26191.25002315 -.00020061  00000+0 -53154-3 0  9995
2 69764  51.8763 204.3006 0006177 124.2979 255.7762 15.37263961  1383
KUIPER-00558            
1 69765U 26151C   26191.25002315 -.00019330  00000+0 -52004-3 0  9996
2 69765  51.8753 204.3284 0007769 135.1625 231.6049 15.36755609  1866
KUIPER-00569            
1 69766U 26151D   26191.25002315 -.00019802  00000+0 -52202-3 0  9991
2 69766  51.8786 204.2867 0005221 122.4629 263.2071 15.37416621  1307
KUIPER-00589            
1 69767U 26151E   26191.25002315 -.00019703  00000+0 -52030-3 0  9991
2 69767  51.8753 204.2959 0005506 127.7721 255.0416 15.37359554  1898
KUIPER-00598            
1 69768U 26151F   26191.25002315 -.00008945  00000+0 -24374-3 0  9998
2 69768  51.8634 204.3912 0010193 151.3120 184.3716 15.35548282  1793
KUIPER-00604            
1 69769U 26151G   26191.25002315 -.00019932  00000+0 -51279-3 0  9991
2 69769  51.8800 204.2410 0002765  92.7186 313.7737 15.38179785  2217
KUIPER-00609            
1 69770U 26151H   26191.25002315 -.00019872  00000+0 -50469-3 0  9996
2 69770  51.8804 204.2151 0001000  39.5430  19.2394 15.38577420  1301
KUIPER-00611            
1 69771U 26151J   26191.25002315 -.00020003  00000+0 -51118-3 0  9997
2 69771  51.8805 204.2239 0001658  90.5429 322.0577 15.38390595  1308
KUIPER-00612            
1 69772U 26151K   26191.25002315 -.00019656  00000+0 -51044-3 0  9998
2 69772  51.8792 204.2606 0003769 100.7099 297.3072 15.37880975  1303
KUIPER-00614            
1 69773U 26151L   26191.25002315 -.00020260  00000+0 -52288-3 0  9993
2 69773  51.8803 204.2444 0002779 108.6053 295.4289 15.38095154  1794
